{"type":"FeatureCollection","features":[
 {"type":"Feature","properties":{"ISO_A2":"DE","NAME":"test-box DE"},"geometry":{"type":"Polygon","coordinates":[[[10.0,50.0],[15.0,50.0],[15.0,54.0],[10.0,54.0],[10.0,50.0]]]}},
 {"type":"Feature","properties":{"ISO_A2":"CH","NAME":"test-box CH"},"geometry":{"type":"Polygon","coordinates":[[[7.0,46.0],[10.0,46.0],[10.0,48.0],[7.0,48.0],[7.0,46.0]]]}},
 {"type":"Feature","properties":{"ISO_A2":"FR","NAME":"test-box FR"},"geometry":{"type":"Polygon","coordinates":[[[0.0,43.0],[5.0,43.0],[5.0,50.0],[0.0,50.0],[0.0,43.0]]]}}
]}
